NORAD_CAT_ID,OBJECT_NAME,OBJECT_TYPE,EPOCH,MEAN_MOTION,ECCENTRICITY,INCLINATION,RA_OF_ASC_NODE,ARG_OF_PERICENTER,MEAN_ANOMALY,BSTAR,MEAN_MOTION_DOT,MEAN_MOTION_DDOT,TLE_LINE0,TLE_LINE1,TLE_LINE2,SEMIMAJOR_AXIS,PERIOD,APOGEE,PERIGEE,DECAYED
54209.0,STARLINK-5259,PAYLOAD,2023-04-18 05:35:20,15.08845778,0.0001326,53.2195,46.3943,109.4242,250.6894,0.00019375,2.797e-05,0.0,0 STARLINK-5259,1 54209U 22141BE  23108.23288032  .00002797  00000-0  19375-3 0  9995,2 54209  53.2195  46.3943 0001326 109.4242 250.6894 15.08845778 26656,6917.863,95.437,540.645,538.81,0.0
54209.0,STARLINK-5259,PAYLOAD,2023-04-19 05:26:08,15.08846979,0.0001285,53.2195,41.9348,106.7639,253.3494,0.00021202,3.089e-05,0.0,0 STARLINK-5259,1 54209U 22141BE  23109.22648209  .00003089  00000-0  21202-3 0  9998,2 54209  53.2195  41.9348 0001285 106.7639 253.3494 15.08846979 26807,6917.859,95.437,540.613,538.835,0.0
54209.0,STARLINK-5259,PAYLOAD,2023-04-20 05:16:55,15.08845135,0.0001127,53.2191,37.4761,88.3131,271.799,0.00033452,5.041e-05,0.0,0 STARLINK-5259,1 54209U 22141BE  23110.22008750  .00005041  00000-0  33452-3 0  9991,2 54209  53.2191  37.4761 0001127  88.3131 271.7990 15.08845135 26953,6917.865,95.437,540.509,538.95,0.0
54209.0,STARLINK-5259,PAYLOAD,2023-04-21 11:29:15,15.08839244,0.0001164,53.2173,31.8266,88.3717,271.7408,0.00025187,3.723e-05,0.0,0 STARLINK-5259,1 54209U 22141BE  23111.47865607  .00003723  00000-0  25187-3 0  9992,2 54209  53.2173  31.8266 0001164  88.3717 271.7408 15.08839244 27142,6917.883,95.438,540.553,538.942,0.0
54209.0,STARLINK-5259,PAYLOAD,2023-04-21 17:50:48,15.08843157,0.0001141,53.2165,30.637,90.2253,269.887,0.00030628,4.59e-05,0.0,0 STARLINK-5259,1 54209U 22141BE  23111.74361540  .00004590  00000-0  30628-3 0  9998,2 54209  53.2165  30.6370 0001141  90.2253 269.8870 15.08843157 27181,6917.871,95.437,540.525,538.946,0.0
54209.0,STARLINK-5259,PAYLOAD,2023-04-21 22:36:57,15.08853319,0.000106,53.2172,29.7468,90.6501,269.4613,0.00046154,7.068e-05,0.0,0 STARLINK-5259,1 54209U 22141BE  23111.94233162  .00007068  00000-0  46154-3 0  9992,2 54209  53.2172  29.7468 0001060  90.6501 269.4613 15.08853319 27447,6917.84,95.437,540.438,538.971,0.0
54209.0,STARLINK-5259,PAYLOAD,2023-04-22 04:58:29,15.08872178,0.0001201,53.218,28.557,93.4622,266.6508,0.001072,0.00016829,0.0,0 STARLINK-5259,1 54209U 22141BE  23112.20728651  .00016829  00000-0  10720-2 0  9998,2 54209  53.2180  28.5570 0001201  93.4622 266.6508 15.08872178 27254,6917.782,95.436,540.478,538.816,0.0
54209.0,STARLINK-5259,PAYLOAD,2023-04-23 03:13:52,15.0885517,9.58e-05,53.2181,24.3898,110.5061,249.6034,0.00018487,2.657e-05,0.0,0 STARLINK-5259,1 54209U 22141BE  23113.13464080  .00002657  00000-0  18487-3 0  9997,2 54209  53.2181  24.3898 0000958 110.5061 249.6034 15.08855170 27391,6917.834,95.437,540.362,539.036,0.0
54209.0,STARLINK-5259,PAYLOAD,2023-04-24 01:29:17,15.08858614,0.0001216,53.2184,20.2292,92.0531,268.06,0.00055243,8.519e-05,0.0,0 STARLINK-5259,1 54209U 22141BE  23114.06200330  .00008519  00000-0  55243-3 0  9990,2 54209  53.2184  20.2292 0001216  92.0531 268.0600 15.08858614 27762,6917.823,95.436,540.53,538.847,0.0
54209.0,STARLINK-5259,PAYLOAD,2023-04-24 17:23:07,15.08900144,0.0001215,53.2178,17.2577,94.2979,265.8152,0.0017775,0.00028161,0.0,0 STARLINK-5259,1 54209U 22141BE  23114.72438927  .00028161  00000-0  17775-2 0  9990,2 54209  53.2178  17.2577 0001215  94.2979 265.8152 15.08900144 27860,6917.697,95.434,540.402,538.721,0.0
54209.0,STARLINK-5259,PAYLOAD,2023-04-24 23:44:39,15.08899328,0.0001276,53.2176,16.0704,90.4843,269.6295,0.0013562,0.00021397,0.0,0 STARLINK-5259,1 54209U 22141BE  23114.98934195  .00021397  00000-0  13562-2 0  9990,2 54209  53.2176  16.0704 0001276  90.4843 269.6295 15.08899328 27672,6917.699,95.434,540.447,538.681,0.0
54209.0,STARLINK-5259,PAYLOAD,2023-04-26 05:57:02,15.08771567,0.0001736,53.2182,10.4194,131.217,228.8972,-0.00011179,-2.063e-05,0.0,0 STARLINK-5259,1 54209U 22141BE  23116.24795005 -.00002063  00000-0 -11179-3 0  9990,2 54209  53.2182  10.4194 0001736 131.2170 228.8972 15.08771567 27862,6918.09,95.442,541.156,538.754,0.0
54209.0,STARLINK-5259,PAYLOAD,2023-04-27 02:37:02,15.08839095,0.0001369,53.2172,6.551,92.535,267.5799,0.0010328,0.00016187,0.0,0 STARLINK-5259,1 54209U 22141BE  23117.10905920  .00016187  00000-0  10328-2 0  9999,2 54209  53.2172   6.5510 0001369  92.5350 267.5799 15.08839095 27992,6917.883,95.438,540.695,538.801,0.0
54209.0,STARLINK-5259,PAYLOAD,2023-04-27 23:17:03,15.08850724,0.00014,53.2174,2.6835,91.2987,268.8165,0.00073124,0.00011372,0.0,0 STARLINK-5259,1 54209U 22141BE  23117.97018149  .00011372  00000-0  73124-3 0  9997,2 54209  53.2174   2.6835 0001400  91.2987 268.8165 15.08850724 28353,6917.848,95.437,540.681,538.744,0.0
54209.0,STARLINK-5259,PAYLOAD,2023-04-28 08:49:22,15.08845778,0.0001416,53.2181,0.9053,105.7474,254.3675,0.00022203,3.248e-05,0.0,0 STARLINK-5259,1 54209U 22141BE  23118.36761877  .00003248  00000-0  22203-3 0  9999,2 54209  53.2181   0.9053 0001416 105.7474 254.3675 15.08845778 28419,6917.863,95.437,540.707,538.748,0.0
54209.0,STARLINK-5259,PAYLOAD,2023-04-29 00:43:12,15.08848489,0.0001634,53.2186,357.9316,112.2242,247.8924,-0.00013423,-2.424e-05,0.0,0 STARLINK-5259,1 54209U 22141BE  23119.03001156 -.00002424  00000-0 -13423-3 0  9992,2 54209  53.2186 357.9316 0001634 112.2242 247.8924 15.08848489 28280,6917.854,95.437,540.85,538.589,0.0
54209.0,STARLINK-5259,PAYLOAD,2023-04-30 00:34:00,15.08844916,0.0001622,53.2187,353.4717,110.5327,249.5839,1.568e-05,-3.8e-07,0.0,0 STARLINK-5259,1 54209U 22141BE  23120.02361426 -.00000038  00000-0  15680-4 0  9998,2 54209  53.2187 353.4717 0001622 110.5327 249.5839 15.08844916 28666,6917.865,95.437,540.852,538.608,0.0
54209.0,STARLINK-5259,PAYLOAD,2023-04-30 21:14:01,15.08838078,0.0001501,53.2182,349.6038,112.0271,248.0881,3.9691e-05,3.44e-06,0.0,0 STARLINK-5259,1 54209U 22141BE  23120.88473927  .00000344  00000-0  39691-4 0  9999,2 54209  53.2182 349.6038 0001501 112.0271 248.0881 15.08838078 28792,6917.886,95.438,540.79,538.713,0.0
54209.0,STARLINK-5259,PAYLOAD,2023-05-01 00:24:47,15.08841616,0.0001306,53.218,349.0091,93.4227,266.6915,0.00010085,1.318e-05,0.0,0 STARLINK-5259,1 54209U 22141BE  23121.01721851  .00001318  00000-0  10085-3 0  9994,2 54209  53.2180 349.0091 0001306  93.4227 266.6915 15.08841616 28582,6917.875,95.437,540.644,538.837,0.0
54209.0,STARLINK-5259,PAYLOAD,2023-05-01 21:04:48,15.08839815,0.0001238,53.2174,345.1431,93.5765,266.5368,5.7411e-05,6.26e-06,0.0,0 STARLINK-5259,1 54209U 22141BE  23121.87834187  .00000626  00000-0  57411-4 0  9991,2 54209  53.2174 345.1431 0001238  93.5765 266.5368 15.08839815 28716,6917.881,95.438,540.602,538.89,0.0
54209.0,STARLINK-5259,PAYLOAD,2023-05-01 22:40:11,15.08841503,0.0001282,53.2179,344.8467,86.9154,273.1985,0.00010293,1.351e-05,0.0,0 STARLINK-5259,1 54209U 22141BE  23121.94458176  .00001351  00000-0  10293-3 0  9991,2 54209  53.2179 344.8467 0001282  86.9154 273.1985 15.08841503 28955,6917.876,95.437,540.628,538.854,0.0
54209.0,STARLINK-5259,PAYLOAD,2023-05-02 20:55:35,15.0884763,0.0001269,53.2181,340.684,76.3834,283.7299,0.00024578,3.627e-05,0.0,0 STARLINK-5259,1 54209U 22141BE  23122.87193879  .00003627  00000-0  24578-3 0  9999,2 54209  53.2181 340.6840 0001269  76.3834 283.7299 15.08847630 28862,6917.857,95.437,540.6,538.844,0.0
54209.0,STARLINK-5259,PAYLOAD,2023-05-03 01:41:44,15.08856416,0.0001227,53.2178,339.7904,87.8281,272.2852,0.00035334,5.342e-05,0.0,0 STARLINK-5259,1 54209U 22141BE  23123.07065355  .00005342  00000-0  35334-3 0  9997,2 54209  53.2178 339.7904 0001227  87.8281 272.2852 15.08856416 29125,6917.83,95.437,540.544,538.846,0.0
54209.0,STARLINK-5259,PAYLOAD,2023-05-03 08:03:17,15.08834892,0.0001549,53.2176,338.6025,69.3891,290.7268,-1.7209e-05,-5.62e-06,0.0,0 STARLINK-5259,1 54209U 22141BE  23123.33562432 -.00000562  00000-0 -17209-4 0  9997,2 54209  53.2176 338.6025 0001549  69.3891 290.7268 15.08834892 29168,6917.896,95.438,540.833,538.689,0.0
54209.0,STARLINK-5259,PAYLOAD,2023-05-03 20:46:22,15.08838146,0.0001275,53.2174,336.2222,73.1482,286.965,3.9482e-05,3.41e-06,0.0,0 STARLINK-5259,1 54209U 22141BE  23123.86554391  .00000341  00000-0  39482-4 0  9990,2 54209  53.2174 336.2222 0001275  73.1482 286.9650 15.08838146 29016,6917.886,95.438,540.633,538.869,0.0
54209.0,STARLINK-5259,PAYLOAD,2023-05-04 01:32:32,15.0884303,0.0001229,53.2173,335.3293,83.2401,276.8731,0.00017337,2.473e-05,0.0,0 STARLINK-5259,1 54209U 22141BE  23124.06426192  .00002473  00000-0  17337-3 0  9992,2 54209  53.2173 335.3293 0001229  83.2401 276.8731 15.08843030 29279,6917.871,95.437,540.586,538.886,0.0
54209.0,STARLINK-5259,PAYLOAD,2023-05-04 20:37:09,15.0885069,0.0001238,53.2175,331.7613,74.7982,285.3147,0.00059653,9.221e-05,0.0,0 STARLINK-5259,1 54209U 22141BE  23124.85914173  .00009221  00000-0  59653-3 0  9995,2 54209  53.2175 331.7613 0001238  74.7982 285.3147 15.08850690 29160,6917.848,95.437,540.569,538.856,0.0
54209.0,STARLINK-5259,PAYLOAD,2023-05-05 12:31:01,15.08839683,0.0001024,53.2174,328.7878,78.3044,281.8063,8.8593e-05,1.122e-05,0.0,0 STARLINK-5259,1 54209U 22141BE  23125.52154355  .00001122  00000-0  88593-4 0  9996,2 54209  53.2174 328.7878 0001024  78.3044 281.8063 15.08839683 29493,6917.881,95.438,540.455,539.038,0.0
54209.0,STARLINK-5259,PAYLOAD,2023-05-05 20:27:56,15.08849578,0.0001099,53.2169,327.3013,75.9557,284.1557,0.00051199,7.872e-05,0.0,0 STARLINK-5259,1 54209U 22141BE  23125.85274088  .00007872  00000-0  51199-3 0  9997,2 54209  53.2169 327.3013 0001099  75.9557 284.1557 15.08849578 29316,6917.851,95.437,540.476,538.956,0.0
54209.0,STARLINK-5259,PAYLOAD,2023-05-06 01:14:06,15.08855384,0.0001148,53.2166,326.4088,80.8433,279.2689,0.00077854,0.00012129,0.0,0 STARLINK-5259,1 54209U 22141BE  23126.05145942  .00012129  00000-0  77854-3 0  9993,2 54209  53.2166 326.4088 0001148  80.8433 279.2689 15.08855384 29579,6917.833,95.437,540.493,538.904,0.0
